OBJECT_NAME,OBJECT_ID,EPOCH,MEAN_MOTION,ECCENTRICITY,INCLINATION,RA_OF_ASC_NODE,ARG_OF_PERICENTER,MEAN_ANOMALY,EPHEMERIS_TYPE,CLASSIFICATION_TYPE,NORAD_CAT_ID,ELEMENT_SET_NO,REV_AT_EPOCH,BSTAR,MEAN_MOTION_DOT,MEAN_MOTION_DDOT
ASTRA 2E,2013-056A,2026-06-26T04:08:01.490208,1.00270605,.0002544,0.0631,328.7263,133.4688,262.5944,0,U,39285,999,4650,0,.161E-5,0
FM-6,2013-058A,2026-06-26T05:27:11.794176,1.00271136,.0001582,0.0163,44.6718,136.1467,59.0342,0,U,39360,999,4616,0,-.5E-7,0
RADUGA-1M 3,2013-062A,2026-06-25T19:36:35.534880,1.00273832,.0001619,5.9799,72.2464,279.2533,251.5824,0,U,39375,999,4619,0,.158E-5,0
SES-8,2013-071A,2026-06-26T02:44:20.182272,1.00272476,.0003012,0.0339,278.3842,175.1603,316.7830,0,U,39460,999,4451,0,-.259E-5,0
INMARSAT 5-F1,2013-073A,2026-06-25T00:57:21.947040,1.00267228,.0000794,0.0177,21.8643,321.8374,6.4461,0,U,39476,999,4565,0,.38E-6,0
TKSAT-1 (TUPAC KATARI),2013-075A,2026-06-26T03:35:01.266144,1.00272499,.0002832,0.0449,181.6889,265.0626,154.0908,0,U,39481,999,4569,0,-.184E-5,0
EXPRESS-AM5,2013-077A,2026-06-25T23:59:51.743616,1.00271295,.000041,0.0139,297.3987,92.5266,24.2024,0,U,39487,999,4644,0,-.269E-5,0
GSAT-14,2014-001A,2026-06-26T02:38:20.754816,1.00272207,.0000608,0.0568,94.6526,140.8051,152.3503,0,U,39498,999,4546,0,-.66E-6,0
THAICOM 6,2014-002A,2026-06-26T04:22:22.613952,1.00273639,.0004744,0.0510,123.2378,350.1003,305.0956,0,U,39500,999,4554,0,-.111E-5,0
TDRS 12,2014-004A,2026-06-25T23:05:42.681120,1.00264714,.0003166,3.9858,19.2457,187.2743,12.8067,0,U,39504,999,4436,0,-.264E-5,0
ABS-2,2014-006A,2026-06-26T02:38:35.732256,1.00272071,.0004001,0.0186,15.1337,64.3837,309.2812,0,U,39508,999,4536,0,-.75E-6,0
ATHENA-FIDUS,2014-006B,2026-06-26T04:10:38.739072,1.00273938,.0001642,0.0206,58.5683,28.9505,287.2469,0,U,39509,999,4517,0,.165E-5,0
TURKSAT 4A,2014-007A,2026-06-25T23:03:58.929408,1.00271967,.0000583,0.0543,294.7451,3.4687,3.8571,0,U,39522,999,4505,0,.157E-5,0
EXPRESS-AT1,2014-010A,2026-06-26T02:35:21.042816,1.00306265,.0004291,0.2812,85.6448,42.5676,248.2532,0,U,39612,999,4490,0,.25E-6,0
EXPRESS-AT2,2014-010B,2026-06-26T04:15:53.235936,1.00271560,.0000159,0.0247,7.3327,267.2735,119.6746,0,U,39613,999,4458,0,0,0
AMAZONAS 4A,2014-011A,2026-06-26T05:06:08.632224,1.00271535,.0004324,0.0601,167.5669,307.7635,161.5497,0,U,39616,999,4480,0,-.241E-5,0
ASTRA 5B,2014-011B,2026-06-26T04:06:39.120768,1.00272204,.0002201,0.0539,323.9008,114.1660,281.3629,0,U,39617,999,4475,0,.148E-5,0
IRNSS-1B,2014-017A,2026-06-22T18:08:03.866784,1.00268591,.00234964,28.9065,240.3095,164.9008,193.0039,0,U,39635,999,4484,0,.117E-5,0
LUCH-5V,2014-023A,2026-06-26T02:44:20.182272,1.00272083,.0002426,5.1552,69.6600,48.4303,291.9939,0,U,39727,999,4444,0,-.263E-5,0
KAZSAT-3,2014-023B,2026-06-25T06:01:59.638080,1.00270949,.0000336,0.0100,3.9050,115.8455,302.6420,0,U,39728,999,4253,0,.7E-6,0
EUTELSAT 3B,2014-030A,2026-06-26T04:00:47.184192,1.00270608,.0004242,0.0604,351.9753,100.8589,244.7529,0,U,39773,999,4415,0,.31E-6,0
ASIASAT 8 (AMOS-7),2014-046A,2026-06-26T02:47:19.894272,1.00270444,.0001707,0.0402,78.8697,22.9792,319.5350,0,U,40107,999,10223,0,-.322E-5,0
ASIASAT 6,2014-052A,2026-06-25T18:18:09.346752,1.00268534,.0001043,0.0448,268.3353,200.0286,199.9526,0,U,40141,999,4316,0,-.351E-5,0
OPTUS 10,2014-054A,2026-06-25T21:53:45.400992,1.00270973,.0002123,0.0901,37.6447,55.9292,304.9237,0,U,40146,999,4311,0,-.137E-5,0
MEASAT-3B,2014-054B,2026-06-26T02:43:20.275968,1.00270444,.0002963,0.0426,46.7604,22.3045,337.5205,0,U,40147,999,4299,0,-.231E-5,0
HIMAWARI-8,2014-060A,2026-06-25T23:59:15.745056,1.00270734,.0001539,0.0152,307.3027,150.6858,316.6040,0,U,40267,999,4284,0,-.265E-5,0
IRNSS-1C,2014-061A,2026-06-25T16:24:56.461248,1.00267985,.0022592,6.5386,88.7700,3.4967,150.6688,0,U,40269,999,4277,0,-.155E-5,0
INTELSAT 30 (IS-30),2014-062A,2026-06-25T08:43:33.617856,1.00272157,.0001489,0.0269,55.6231,338.6494,275.0652,0,U,40271,999,687,0,-.141E-5,0
ARSAT 1,2014-062B,2026-06-26T03:34:38.794368,1.00271704,.0002064,0.0191,321.2873,128.1926,166.6562,0,U,40272,999,4271,0,-.249E-5,0
EUTELSAT 53A,2014-064A,2026-06-26T04:15:00.821376,1.00272309,.0001149,0.0167,327.5024,209.9895,213.5725,0,U,40277,999,4165,0,.109E-5,0
GSAT-16,2014-078A,2026-06-26T02:32:58.768800,1.00273584,.0008048,0.0590,267.4472,176.7254,283.3691,0,U,40332,999,4219,0,.96E-6,0
DIRECTV 14,2014-078B,2026-06-25T08:42:18.739296,1.00272630,.0000354,0.0098,19.2836,6.4271,279.1338,0,U,40333,999,4212,0,-.116E-5,0
