ASTRA 2E                
1 39285U 13056A   26177.17223947  .00000161  00000+0  00000+0 0  9996
2 39285   0.0631 328.7263 0002544 133.4688 262.5944  1.00270605 46506
FM-6                    
1 39360U 13058A   26177.22721984 -.00000005  00000+0  00000+0 0  9990
2 39360   0.0163  44.6718 0001582 136.1467  59.0342  1.00271136 46168
RADUGA-1M 3             
1 39375U 13062A   26176.81707795  .00000158  00000+0  00000+0 0  9997
2 39375   5.9799  72.2464 0001619 279.2533 251.5824  1.00273832 46194
SES-8                   
1 39460U 13071A   26177.11412248 -.00000259  00000+0  00000+0 0  9995
2 39460   0.0339 278.3842 0003012 175.1603 316.7830  1.00272476 44513
INMARSAT 5-F1           
1 39476U 13073A   26176.03983735  .00000038  00000+0  00000+0 0  9992
2 39476   0.0177  21.8643 0000794 321.8374   6.4461  1.00267228 45657
TKSAT-1 (TUPAC KATARI)  
1 39481U 13075A   26177.14932021 -.00000184  00000+0  00000+0 0  9998
2 39481   0.0449 181.6889 0002832 265.0626 154.0908  1.00272499 45692
EXPRESS-AM5             
1 39487U 13077A   26176.99990444 -.00000269  00000+0  00000+0 0  9995
2 39487   0.0139 297.3987 0000410  92.5266  24.2024  1.00271295 46445
GSAT-14                 
1 39498U 14001A   26177.10996244 -.00000066  00000+0  00000+0 0  9998
2 39498   0.0568  94.6526 0000608 140.8051 152.3503  1.00272207 45468
THAICOM 6               
1 39500U 14002A   26177.18220618 -.00000111  00000+0  00000+0 0  9997
2 39500   0.0510 123.2378 0004744 350.1003 305.0956  1.00273639 45549
TDRS 12                 
1 39504U 14004A   26176.96229955 -.00000264  00000+0  00000+0 0  9990
2 39504   3.9858  19.2457 0003166 187.2743  12.8067  1.00264714 44368
ABS-2                   
1 39508U 14006A   26177.11013579 -.00000075  00000+0  00000+0 0  9997
2 39508   0.0186  15.1337 0004001  64.3837 309.2812  1.00272071 45361
ATHENA-FIDUS            
1 39509U 14006B   26177.17405948  .00000165  00000+0  00000+0 0  9998
2 39509   0.0206  58.5683 0001642  28.9505 287.2469  1.00273938 45171
TURKSAT 4A              
1 39522U 14007A   26176.96109872  .00000157  00000+0  00000+0 0  9998
2 39522   0.0543 294.7451 0000583   3.4687   3.8571  1.00271967 45052
EXPRESS-AT1             
1 39612U 14010A   26177.10788244  .00000025  00000+0  00000+0 0  9999
2 39612   0.2812  85.6448 0004291  42.5676 248.2532  1.00306265 44903
EXPRESS-AT2             
1 39613U 14010B   26177.17769949  .00000000  00000+0  00000+0 0  9991
2 39613   0.0247   7.3327 0000159 267.2735 119.6746  1.00271560 44583
AMAZONAS 4A             
1 39616U 14011A   26177.21259991 -.00000241  00000+0  00000+0 0  9999
2 39616   0.0601 167.5669 0004324 307.7635 161.5497  1.00271535 44801
ASTRA 5B                
1 39617U 14011B   26177.17128612  .00000148  00000+0  00000+0 0  9995
2 39617   0.0539 323.9008 0002201 114.1660 281.3629  1.00272204 44753
IRNSS-1B                
1 39635U 14017A   26173.75560031  .00000117  00000+0  00000+0 0  9992
2 39635  28.9065 240.3095 0023496 164.9008 193.0039  1.00268591 44840
LUCH-5V                 
1 39727U 14023A   26177.11412248 -.00000263  00000+0  00000+0 0  9994
2 39727   5.1552  69.6600 0002426  48.4303 291.9939  1.00272083 44442
KAZSAT-3                
1 39728U 14023B   26176.25138470  .00000070  00000+0  00000+0 0  9996
2 39728   0.0100   3.9050 0000336 115.8455 302.6420  1.00270949 42533
EUTELSAT 3B             
1 39773U 14030A   26177.16721278  .00000031  00000+0  00000+0 0  9996
2 39773   0.0604 351.9753 0004242 100.8589 244.7529  1.00270608 44158
ASIASAT 8 (AMOS-7)      
1 40107U 14046A   26177.11620248 -.00000322  00000+0  00000+0 0  9990
2 40107   0.0402  78.8697 0001707  22.9792 319.5350  1.00270444102237
ASIASAT 6               
1 40141U 14052A   26176.76260818 -.00000351  00000+0  00000+0 0  9990
2 40141   0.0448 268.3353 0001043 200.0286 199.9526  1.00268534 43168
OPTUS 10                
1 40146U 14054A   26176.91233103 -.00000137  00000+0  00000+0 0  9993
2 40146   0.0901  37.6447 0002123  55.9292 304.9237  1.00270973 43114
MEASAT-3B               
1 40147U 14054B   26177.11342912 -.00000231  00000+0  00000+0 0  9991
2 40147   0.0426  46.7604 0002963  22.3045 337.5205  1.00270444 42994
HIMAWARI-8              
1 40267U 14060A   26176.99948779 -.00000265  00000+0  00000+0 0  9996
2 40267   0.0152 307.3027 0001539 150.6858 316.6040  1.00270734 42844
IRNSS-1C                
1 40269U 14061A   26176.68398682 -.00000155  00000+0  00000+0 0  9995
2 40269   6.5386  88.7700 0022592   3.4967 150.6688  1.00267985 42772
INTELSAT 30 (IS-30)     
1 40271U 14062A   26176.36358354 -.00000141  00000+0  00000+0 0  9991
2 40271   0.0269  55.6231 0001489 338.6494 275.0652  1.00272157  6877
ARSAT 1                 
1 40272U 14062B   26177.14906012 -.00000249  00000+0  00000+0 0  9998
2 40272   0.0191 321.2873 0002064 128.1926 166.6562  1.00271704 42713
EUTELSAT 53A            
1 40277U 14064A   26177.17709284  .00000109  00000+0  00000+0 0  9994
2 40277   0.0167 327.5024 0001149 209.9895 213.5725  1.00272309 41651
GSAT-16                 
1 40332U 14078A   26177.10623575  .00000096  00000+0  00000+0 0  9997
2 40332   0.0590 267.4472 0008048 176.7254 283.3691  1.00273584 42190
DIRECTV 14              
1 40333U 14078B   26176.36271689 -.00000116  00000+0  00000+0 0  9994
2 40333   0.0098  19.2836 0000354   6.4271 279.1338  1.00272630 42126
